TOMORROW-S2             
1 60485U 24149T   26068.75188364  .00008133  00000+0  27683-3 0  9990
2 60485  97.3857 150.0385 0001648 234.3331 125.7757 15.30674935 86869
STARLINK-32381          
1 61066U 24164S   26068.35903403  .00000456  00000+0  27520-4 0  9999
2 61066  53.1606  92.8854 0001177  82.0387 278.0748 15.30191281 83426
